{
  "norad_id": 67797,
  "name": "STARLINK-36800",
  "history": [
    {
      "epoch": "2026-03-28T11:56:40.978464Z",
      "apogee_km": 345.1823302518842,
      "perigee_km": 342.7025551454735,
      "latitude_deg": -8.997085168900538e-05,
      "longitude_deg": -90.1844200011131,
      "height_km": 346.42100146683936,
      "semi_major_axis_km": 6722.079442698679,
      "eccentricity": 0.00018445,
      "inclination_deg": 97.2827,
      "raan_deg": 274.9036,
      "arg_perigee_deg": 56.3366,
      "mean_anomaly_deg": 303.8074,
      "mean_motion_rev_day": 15.75242066
    },
    {
      "epoch": "2026-03-29T01:40:00.348672Z",
      "apogee_km": 345.16728659729415,
      "perigee_km": 342.97046971631335,
      "latitude_deg": 6.208253947647209e-06,
      "longitude_deg": 64.02151395913488,
      "height_km": 346.99814331187343,
      "semi_major_axis_km": 6722.205878156804,
      "eccentricity": 0.0001634,
      "inclination_deg": 97.2823,
      "raan_deg": 275.5038,
      "arg_perigee_deg": 77.5652,
      "mean_anomaly_deg": 282.5796,
      "mean_motion_rev_day": 15.75197624
    },
    {
      "epoch": "2026-03-30T03:35:09.989088Z",
      "apogee_km": 345.1855767644438,
      "perigee_km": 342.86495190754977,
      "latitude_deg": -7.558570355810472e-06,
      "longitude_deg": 35.29917829709134,
      "height_km": 346.9639481102832,
      "semi_major_axis_km": 6722.162264335997,
      "eccentricity": 0.00017261,
      "inclination_deg": 97.2814,
      "raan_deg": 276.6361,
      "arg_perigee_deg": 78.7188,
      "mean_anomaly_deg": 281.4271,
      "mean_motion_rev_day": 15.75212954
    },
    {
      "epoch": "2026-03-30T11:12:33.777504Z",
      "apogee_km": 344.0930568445101,
      "perigee_km": 343.7101695251022,
      "latitude_deg": -1.3560236183414825e-05,
      "longitude_deg": -79.03051573412779,
      "height_km": 347.03094079883084,
      "semi_major_axis_km": 6722.038613184805,
      "eccentricity": 2.848e-05,
      "inclination_deg": 97.284,
      "raan_deg": 276.9686,
      "arg_perigee_deg": 78.3518,
      "mean_anomaly_deg": 281.7779,
      "mean_motion_rev_day": 15.75256418
    },
    {
      "epoch": "2026-03-30T18:49:57.795744Z",
      "apogee_km": 345.2251846637382,
      "perigee_km": 342.463122607709,
      "latitude_deg": 3.770268653609839e-05,
      "longitude_deg": 166.639222735861,
      "height_km": 347.0009557440069,
      "semi_major_axis_km": 6721.981153635724,
      "eccentricity": 0.00020545,
      "inclination_deg": 97.2814,
      "raan_deg": 277.3015,
      "arg_perigee_deg": 89.6528,
      "mean_anomaly_deg": 270.4973,
      "mean_motion_rev_day": 15.75276616
    },
    {
      "epoch": "2026-03-31T11:36:14.330880Z",
      "apogee_km": 345.04163633126973,
      "perigee_km": 342.9491709566637,
      "latitude_deg": 2.6538374190369268e-05,
      "longitude_deg": -84.88464248226293,
      "height_km": 347.73331828109553,
      "semi_major_axis_km": 6722.132403643966,
      "eccentricity": 0.00015564,
      "inclination_deg": 97.282,
      "raan_deg": 278.0353,
      "arg_perigee_deg": 123.1042,
      "mean_anomaly_deg": 237.0373,
      "mean_motion_rev_day": 15.7522345
    },
    {
      "epoch": "2026-04-01T10:28:26.071104Z",
      "apogee_km": 344.81538906314836,
      "perigee_km": 342.6590118196482,
      "latitude_deg": -2.2012980068371186e-06,
      "longitude_deg": -67.87318972938583,
      "height_km": 346.89862227972003,
      "semi_major_axis_km": 6721.874200441398,
      "eccentricity": 0.0001604,
      "inclination_deg": 97.2817,
      "raan_deg": 279.0349,
      "arg_perigee_deg": 89.7568,
      "mean_anomaly_deg": 270.3881,
      "mean_motion_rev_day": 15.75314213
    },
    {
      "epoch": "2026-04-02T18:29:30.032736Z",
      "apogee_km": 344.53785884624995,
      "perigee_km": 343.1813599304751,
      "latitude_deg": -4.817308062100283e-05,
      "longitude_deg": 171.94478757322085,
      "height_km": 346.97595876700177,
      "semi_major_axis_km": 6721.996609388362,
      "eccentricity": 0.0001009,
      "inclination_deg": 97.2822,
      "raan_deg": 280.4343,
      "arg_perigee_deg": 85.7246,
      "mean_anomaly_deg": 274.4134,
      "mean_motion_rev_day": 15.75271183
    },
    {
      "epoch": "2026-04-02T18:29:30.033600Z",
      "apogee_km": 344.5376571863517,
      "perigee_km": 343.18156159037335,
      "latitude_deg": 5.508419239931209e-05,
      "longitude_deg": 171.94477084258827,
      "height_km": 346.9759596693304,
      "semi_major_axis_km": 6721.996609388362,
      "eccentricity": 0.00010087,
      "inclination_deg": 97.2822,
      "raan_deg": 280.4343,
      "arg_perigee_deg": 85.7246,
      "mean_anomaly_deg": 274.4135,
      "mean_motion_rev_day": 15.75271183
    },
    {
      "epoch": "2026-04-03T11:15:47.060352Z",
      "apogee_km": 345.26399654304987,
      "perigee_km": 342.4680466062564,
      "latitude_deg": 4.83234676338361e-05,
      "longitude_deg": -79.581349745515,
      "height_km": 347.92724132179654,
      "semi_major_axis_km": 6722.003021574653,
      "eccentricity": 0.00020797,
      "inclination_deg": 97.2821,
      "raan_deg": 281.1679,
      "arg_perigee_deg": 129.812,
      "mean_anomaly_deg": 230.3329,
      "mean_motion_rev_day": 15.75268929
    },
    {
      "epoch": "2026-04-04T11:39:26.486208Z",
      "apogee_km": 344.1280754928066,
      "perigee_km": 343.27372989537525,
      "latitude_deg": -3.55428112882385e-06,
      "longitude_deg": -85.43145573963652,
      "height_km": 346.625475497556,
      "semi_major_axis_km": 6721.837902694091,
      "eccentricity": 6.355e-05,
      "inclination_deg": 97.2824,
      "raan_deg": 282.2339,
      "arg_perigee_deg": 55.309,
      "mean_anomaly_deg": 304.8235,
      "mean_motion_rev_day": 15.75326973
    },
    {
      "epoch": "2026-04-05T12:03:08.746848Z",
      "apogee_km": 344.9196126038414,
      "perigee_km": 342.88001219422404,
      "latitude_deg": -1.7419455105842247e-05,
      "longitude_deg": -91.2941113894862,
      "height_km": 346.5724827839666,
      "semi_major_axis_km": 6722.036812399033,
      "eccentricity": 0.00015171,
      "inclination_deg": 97.2827,
      "raan_deg": 283.2992,
      "arg_perigee_deg": 61.0535,
      "mean_anomaly_deg": 299.0882,
      "mean_motion_rev_day": 15.75257051
    }
  ]
}